[{"OBJECT_NAME":"HAWK-2A","OBJECT_ID":"2021-006CW","EPOCH":"2026-03-09T16:18:25.817472","MEAN_MOTION":15.33304498,"ECCENTRICITY":0.00064498,"INCLINATION":97.2459,"RA_OF_ASC_NODE":115.6184,"ARG_OF_PERICENTER":187.1463,"MEAN_ANOMALY":172.9689,"EPHEMERIS_TYPE":0,"CLASSIFICATION_TYPE":"U","NORAD_CAT_ID":47505,"ELEMENT_SET_NO":999,"REV_AT_EPOCH":28424,"BSTAR":0.0002543136,"MEAN_MOTION_DOT":8.113e-5,"MEAN_MOTION_DDOT":0},{"OBJECT_NAME":"STARLINK-2226","OBJECT_ID":"2021-024AK","EPOCH":"2026-03-09T23:40:22.980576","MEAN_MOTION":15.30181181,"ECCENTRICITY":8.791e-5,"INCLINATION":53.1619,"RA_OF_ASC_NODE":331.0466,"ARG_OF_PERICENTER":98.8681,"MEAN_ANOMALY":261.2419,"EPHEMERIS_TYPE":0,"CLASSIFICATION_TYPE":"U","NORAD_CAT_ID":48010,"ELEMENT_SET_NO":999,"REV_AT_EPOCH":27461,"BSTAR":-8.687931e-6,"MEAN_MOTION_DOT":-6.16e-6,"MEAN_MOTION_DDOT":0}]
